ELEKTRO-L 3             
1 44903U 19095A   26192.16641973 -.00000089  00000+0  00000+0 0  9997
2 44903   0.3148  82.1885 0001220  19.5233 323.2679  1.00271320 23944
SHIJIAN-20 (SJ-20)      
1 44910U 19097A   26191.90600256  .00000139  00000+0  00000+0 0  9992
2 44910   4.9760  74.7730 0015277  56.8827 168.1648  1.00267095 23933
TJS-5                   
1 44978U 20002A   26192.01593505 -.00000334  00000+0  00000+0 0  9993
2 44978   0.0521  73.5576 0007741 341.0487 347.5710  1.00270332 23944
GSAT-30                 
1 45026U 20005A   26192.08234681 -.00000157  00000+0  00000+0 0  9998
2 45026   0.0373  92.9263 0003123   1.6630 307.0466  1.00269268 23744
EUTELSAT KONNECT        
1 45027U 20005B   26192.07752972  .00000058  00000+0  00000+0 0  9995
2 45027   0.0674  93.9375 0002181 138.2522  91.9289  1.00274006 24574
JCSAT-17                
1 45245U 20013A   26191.87897845 -.00000305  00000+0  00000+0 0  9998
2 45245   5.3920 357.0819 0002865 126.9722 257.1928  1.00270837 23472
GEO-KOMPSAT-2B          
1 45246U 20013B   26192.17892022 -.00000336  00000+0  00000+0 0  9999
2 45246   0.0475 230.6595 0000715   6.2503 244.8481  1.00271873 23520
BEIDOU-3 G2             
1 45344U 20017A   26192.08174014 -.00000135  00000+0  00000+0 0  9993
2 45344   2.9096  47.6644 0002099  58.8784 291.9330  1.00269690 23497
AEHF-6 (USA 298)        
1 45465U 20022B   26192.14003159 -.00000287  00000+0  00000+0 0  9999
2 45465   2.4978 301.4380 0042065  15.4270 160.3572  1.00272786 23250
BEIDOU-3 G3             
1 45807U 20040A   26192.08780684 -.00000348  00000+0  00000+0 0  9995
2 45807   2.5022  67.4780 0001791 328.9601  34.6479  1.00266089 22319
APSTAR-6D               
1 45863U 20045A   26191.94984008 -.00000310  00000+0  00000+0 0  9991
2 45863   0.0410  92.2618 0001124  17.6227 294.9439  1.00270611 22095
KOREASAT 116            
1 45920U 20048A   26192.20600196 -.00000355  00000+0  00000+0 0  9990
2 45920   0.0137  25.6074 0000751  93.8060   0.0730  1.00268680 21886
EXPRESS 103             
1 45985U 20053A   26192.08486016 -.00000273  00000+0  00000+0 0  9995
2 45985   0.0309 263.6119 0001078 201.0756 311.3593  1.00270261 21883
EXPRESS 80              
1 45986U 20053B   26191.97537509  .00000000  00000+0  00000+0 0  9994
2 45986   0.0194  25.5158 0001509 180.9837 153.4928  1.00267449 21867
BSAT-4B                 
1 46112U 20056A   26192.01636838 -.00000342  00000+0  00000+0 0  9990
2 46112   0.0459 192.7799 0004152 297.7070 274.1656  1.00270369 21622
MEV-2                   
1 46113U 20056B   26192.19072829 -.00000004  00000+0  00000+0 0  9999
2 46113   0.0510 259.5719 0000428 349.0529 108.1316  1.00269641 80958
GALAXY 30 (G-30)        
1 46114U 20056C   26192.23075975  .00000000  00000+0  00000+0 0  9995
2 46114   0.0285  42.6171 0001942  72.7748 131.8212  1.00270557 21531
GAOFEN-13 01            
1 46610U 20071A   26192.20600196 -.00000356  00000+0  00000+0 0  9994
2 46610   0.4572  86.1975 0045208 120.4940 274.8354  1.00267723 21163
TIANTONG-1 2            
1 46916U 20082A   26192.20600196 -.00000348  00000+0  00000+0 0  9996
2 46916   0.7626 330.9964 0001316 141.3984  15.8190  1.00268607 20897
LUCAS (JDRS-1)          
1 47202U 20089A   26192.08390682 -.00000228  00000+0  00000+0 0  9991
2 47202   0.0400 274.9863 0001643 187.2837 307.7366  1.00271779 20659
SXM-7                   
1 47240U 20096A   26190.90840497 -.00000193  00000+0  00000+0 0  9995
2 47240   0.0261 100.2161 0003431  24.3135  45.1790  1.00273191  7678
CMS-01                  
1 47256U 20099A   26192.08234681 -.00000157  00000+0  00000+0 0  9998
2 47256   0.0641  91.5796 0003456 176.1504 133.9041  1.00271424 20437
TURKSAT 5A              
1 47306U 21001A   26192.06641986  .00000162  00000+0  00000+0 0  9991
2 47306   0.0141  67.3124 0000183 205.2380  71.2662  1.00272283 20206
TIANTONG-1 3            
1 47321U 21003A   26192.08208681 -.00000145  00000+0  00000+0 0  9995
2 47321   1.7385 340.7372 0003133 138.3602 280.9971  1.00271126 20202
TJS-6                   
1 47613U 21010A   26192.19072464  .00000050  00000+0  00000+0 0  9991
2 47613   0.1919 262.2100 0003129 237.7470  36.2600  1.00271645 20040
SBIRS GEO-5 (USA 315)   
1 48618U 21042A   26191.96989091 -.00000255  00000+0  00000+0 0  9997
2 48618   5.0746 329.2939 0001472 155.2049 247.3576  1.00270906 19018
FENGYUN 4B              
1 48808U 21047A   26191.58070218 -.00000319  00000+0  00000+0 0  9994
2 48808   0.2078  79.5500 0005740 273.4385 249.1781  1.00265170 18802
SXM-8                   
1 48838U 21049A   26192.20718954 -.00000198  00000+0  00000+0 0  9990
2 48838   0.0170  40.9509 0005304 350.2606 247.3467  1.00270369 18822
TIANLIAN 1-05           
1 49011U 21063A   26192.06926007  .00000114  00000+0  00000+0 0  9991
2 49011   1.6525  80.4970 0000881  87.6154 162.6485  1.00271533 18319
STAR ONE D2             
1 49055U 21069A   26192.21304538  .00000000  00000+0  00000+0 0  9995
2 49055   0.0124  22.3887 0002361 105.9645 167.3774  1.00270083 18188
EUTELSAT QUANTUM        
1 49056U 21069B   26192.07532676  .00000134  00000+0  00000+0 0  9994
2 49056   0.0223 316.8629 0002020 150.4179 256.5188  1.00269343 18168
ZHONGXING-2E            
1 49062U 21071A   26192.01402837 -.00000283  00000+0  00000+0 0  9999
2 49062   0.0644 239.2844 0001132 265.9652 246.7932  1.00271906 18278
