OBJECT_NAME,OBJECT_ID,EPOCH,MEAN_MOTION,ECCENTRICITY,INCLINATION,RA_OF_ASC_NODE,ARG_OF_PERICENTER,MEAN_ANOMALY,EPHEMERIS_TYPE,CLASSIFICATION_TYPE,NORAD_CAT_ID,ELEMENT_SET_NO,REV_AT_EPOCH,BSTAR,MEAN_MOTION_DOT,MEAN_MOTION_DDOT
ELEKTRO-L 3,2019-095A,2026-07-11T03:59:38.664672,1.00271320,.000122,0.3148,82.1885,19.5233,323.2679,0,U,44903,999,2394,0,-.89E-6,0
SHIJIAN-20 (SJ-20),2019-097A,2026-07-10T21:44:38.621184,1.00267095,.0015277,4.9760,74.7730,56.8827,168.1648,0,U,44910,999,2393,0,.139E-5,0
TJS-5,2020-002A,2026-07-11T00:22:56.788320,1.00270332,.0007741,0.0521,73.5576,341.0487,347.5710,0,U,44978,999,2394,0,-.334E-5,0
GSAT-30,2020-005A,2026-07-11T01:58:34.764384,1.00269268,.0003123,0.0373,92.9263,1.6630,307.0466,0,U,45026,999,2374,0,-.157E-5,0
EUTELSAT KONNECT,2020-005B,2026-07-11T01:51:38.567808,1.00274006,.0002181,0.0674,93.9375,138.2522,91.9289,0,U,45027,999,2457,0,.58E-6,0
JCSAT-17,2020-013A,2026-07-10T21:05:43.738080,1.00270837,.0002865,5.3920,357.0819,126.9722,257.1928,0,U,45245,999,2347,0,-.305E-5,0
GEO-KOMPSAT-2B,2020-013B,2026-07-11T04:17:38.707008,1.00271873,.0000715,0.0475,230.6595,6.2503,244.8481,0,U,45246,999,2352,0,-.336E-5,0
BEIDOU-3 G2,2020-017A,2026-07-11T01:57:42.348096,1.00269690,.0002099,2.9096,47.6644,58.8784,291.9330,0,U,45344,999,2349,0,-.135E-5,0
AEHF-6 (USA 298),2020-022B,2026-07-11T03:21:38.729376,1.00272786,.0042065,2.4978,301.4380,15.4270,160.3572,0,U,45465,999,2325,0,-.287E-5,0
BEIDOU-3 G3,2020-040A,2026-07-11T02:06:26.510976,1.00266089,.0001791,2.5022,67.4780,328.9601,34.6479,0,U,45807,999,2231,0,-.348E-5,0
APSTAR-6D,2020-045A,2026-07-10T22:47:46.182912,1.00270611,.0001124,0.0410,92.2618,17.6227,294.9439,0,U,45863,999,2209,0,-.31E-5,0
KOREASAT 116,2020-048A,2026-07-11T04:56:38.569344,1.00268680,.0000751,0.0137,25.6074,93.8060,0.0730,0,U,45920,999,2188,0,-.355E-5,0
EXPRESS 103,2020-053A,2026-07-11T02:02:11.917824,1.00270261,.0001078,0.0309,263.6119,201.0756,311.3593,0,U,45985,999,2188,0,-.273E-5,0
EXPRESS 80,2020-053B,2026-07-10T23:24:32.407776,1.00267449,.0001509,0.0194,25.5158,180.9837,153.4928,0,U,45986,999,2186,0,0,0
BSAT-4B,2020-056A,2026-07-11T00:23:34.228032,1.00270369,.0004152,0.0459,192.7799,297.7070,274.1656,0,U,46112,999,2162,0,-.342E-5,0
MEV-2,2020-056B,2026-07-11T04:34:38.924256,1.00269641,.0000428,0.0510,259.5719,349.0529,108.1316,0,U,46113,999,8095,0,-.4E-7,0
GALAXY 30 (G-30),2020-056C,2026-07-11T05:32:17.642400,1.00270557,.0001942,0.0285,42.6171,72.7748,131.8212,0,U,46114,999,2153,0,0,0
GAOFEN-13 01,2020-071A,2026-07-11T04:56:38.569344,1.00267723,.0045208,0.4572,86.1975,120.4940,274.8354,0,U,46610,999,2116,0,-.356E-5,0
TIANTONG-1 2,2020-082A,2026-07-11T04:56:38.569344,1.00268607,.0001316,0.7626,330.9964,141.3984,15.8190,0,U,46916,999,2089,0,-.348E-5,0
LUCAS (JDRS-1),2020-089A,2026-07-11T02:00:49.549248,1.00271779,.0001643,0.0400,274.9863,187.2837,307.7366,0,U,47202,999,2065,0,-.228E-5,0
SXM-7,2020-096A,2026-07-09T21:48:06.189408,1.00273191,.00034317,0.0261,100.2161,24.3135,45.1790,0,U,47240,999,767,0,-.193E-5,0
CMS-01,2020-099A,2026-07-11T01:58:34.764384,1.00271424,.0003456,0.0641,91.5796,176.1504,133.9041,0,U,47256,999,2043,0,-.157E-5,0
TURKSAT 5A,2021-001A,2026-07-11T01:35:38.675904,1.00272283,.0000183,0.0141,67.3124,205.2380,71.2662,0,U,47306,999,2020,0,.162E-5,0
TIANTONG-1 3,2021-003A,2026-07-11T01:58:12.300384,1.00271126,.0003133,1.7385,340.7372,138.3602,280.9971,0,U,47321,999,2020,0,-.145E-5,0
TJS-6,2021-010A,2026-07-11T04:34:38.608896,1.00271645,.0003129,0.1919,262.2100,237.7470,36.2600,0,U,47613,999,2004,0,.5E-6,0
SBIRS GEO-5 (USA 315),2021-042A,2026-07-10T23:16:38.574624,1.00270906,.0001472,5.0746,329.2939,155.2049,247.3576,0,U,48618,999,1901,0,-.255E-5,0
FENGYUN 4B,2021-047A,2026-07-10T13:56:12.668352,1.00265170,.00057409,0.2078,79.5500,273.4385,249.1781,0,U,48808,999,1880,0,-.319E-5,0
SXM-8,2021-049A,2026-07-11T04:58:21.176256,1.00270369,.0005304,0.0170,40.9509,350.2606,247.3467,0,U,48838,999,1882,0,-.198E-5,0
TIANLIAN 1-05,2021-063A,2026-07-11T01:39:44.070048,1.00271533,.0000881,1.6525,80.4970,87.6154,162.6485,0,U,49011,999,1831,0,.114E-5,0
STAR ONE D2,2021-069A,2026-07-11T05:06:47.120832,1.00270083,.0002361,0.0124,22.3887,105.9645,167.3774,0,U,49055,999,1818,0,0,0
EUTELSAT QUANTUM,2021-069B,2026-07-11T01:48:28.232064,1.00269343,.000202,0.0223,316.8629,150.4179,256.5188,0,U,49056,999,1816,0,.134E-5,0
ZHONGXING-2E,2021-071A,2026-07-11T00:20:12.051168,1.00271906,.0001132,0.0644,239.2844,265.9652,246.7932,0,U,49062,999,1827,0,-.283E-5,0
